{
  "type": "FeatureCollection",
  "features": [
    {
      "type": "Feature",
      "properties": {
        "norad_id": 33986,
        "name": "COSMOS 2251 DEB",
        "group": "cosmos-2251-debris",
        "lat": -60.05273852918742,
        "lon": 167.62455547569957,
        "alt_km": 779.1622561755394,
        "timestamp": "2025-12-04T13:52:00.834915+00:00",
        "meta_object_name": "COSMOS 2251 DEB",
        "meta_object_id": "1993-036FV",
        "meta_epoch": "2025-12-04T01:24:45.298368",
        "meta_mean_motion": 14.43131531,
        "meta_eccentricity": 0.00400003,
        "meta_inclination": 74.0364,
        "meta_ra_of_asc_node": 318.7964,
        "meta_arg_of_pericenter": 33.6511,
        "meta_mean_anomaly": 35.9675,
        "meta_ephemeris_type": 0,
        "meta_classification_type": "U",
        "meta_norad_cat_id": 33986,
        "meta_element_set_no": 999,
        "meta_rev_at_epoch": 87903,
        "meta_bstar": 0.0014914421,
        "meta_mean_motion_dot": 5.033e-05,
        "meta_mean_motion_ddot": 0,
        "tle_line1": "1 33986U 93036FV  25338.05885762  .00005033  00000+0  14914-2 0  9993",
        "tle_line2": "2 33986  74.0364 318.7964 0040000  33.6511  35.9675 14.43131531879034"
      },
      "geometry": {
        "type": "Point",
        "coordinates": [
          167.62455547569957,
          -60.05273852918742
        ]
      }
    },
    {
      "type": "Feature",
      "properties": {
        "norad_id": 33990,
        "name": "COSMOS 2251 DEB",
        "group": "cosmos-2251-debris",
        "lat": 28.019346788840654,
        "lon": 110.273756249838,
        "alt_km": 1369.7168372802562,
        "timestamp": "2025-12-04T13:52:00.834925+00:00",
        "meta_object_name": "COSMOS 2251 DEB",
        "meta_object_id": "1993-036FZ",
        "meta_epoch": "2025-12-04T06:30:28.869408",
        "meta_mean_motion": 13.49952048,
        "meta_eccentricity": 0.04076114,
        "meta_inclination": 73.9281,
        "meta_ra_of_asc_node": 299.59,
        "meta_arg_of_pericenter": 321.4191,
        "meta_mean_anomaly": 140.4673,
        "meta_ephemeris_type": 0,
        "meta_classification_type": "U",
        "meta_norad_cat_id": 33990,
        "meta_element_set_no": 999,
        "meta_rev_at_epoch": 82615,
        "meta_bstar": 0.0030940017,
        "meta_mean_motion_dot": 3.273e-05,
        "meta_mean_motion_ddot": 0,
        "tle_line1": "1 33990U 93036FZ  25338.27116747  .00003273  00000+0  30940-2 0  9993",
        "tle_line2": "2 33990  73.9281 299.5900 0407611 321.4191 140.4673 13.49952048826152"
      },
      "geometry": {
        "type": "Point",
        "coordinates": [
          110.273756249838,
          28.019346788840654
        ]
      }
    },
    {
      "type": "Feature",
      "properties": {
        "norad_id": 33992,
        "name": "COSMOS 2251 DEB",
        "group": "cosmos-2251-debris",
        "lat": 33.21944604939979,
        "lon": 162.6663490664179,
        "alt_km": 639.8719846799495,
        "timestamp": "2025-12-04T13:52:00.834935+00:00",
        "meta_object_name": "COSMOS 2251 DEB",
        "meta_object_id": "1993-036GB",
        "meta_epoch": "2025-12-04T03:40:43.663296",
        "meta_mean_motion": 14.66108247,
        "meta_eccentricity": 0.00517066,
        "meta_inclination": 74.024,
        "meta_ra_of_asc_node": 354.2978,
        "meta_arg_of_pericenter": 114.8833,
        "meta_mean_anomaly": 310.3687,
        "meta_ephemeris_type": 0,
        "meta_classification_type": "U",
        "meta_norad_cat_id": 33992,
        "meta_element_set_no": 999,
        "meta_rev_at_epoch": 88999,
        "meta_bstar": 0.0014672592,
        "meta_mean_motion_dot": 8.2e-05,
        "meta_mean_motion_ddot": 0,
        "tle_line1": "1 33992U 93036GB  25338.15328314  .00008200  00000+0  14673-2 0  9997",
        "tle_line2": "2 33992  74.0240 354.2978 0051706 114.8833 310.3687 14.66108247889990"
      },
      "geometry": {
        "type": "Point",
        "coordinates": [
          162.6663490664179,
          33.21944604939979
        ]
      }
    },
    {
      "type": "Feature",
      "properties": {
        "norad_id": 33994,
        "name": "COSMOS 2251 DEB",
        "group": "cosmos-2251-debris",
        "lat": 64.7916823987391,
        "lon": -117.05455853334423,
        "alt_km": 747.4922013486803,
        "timestamp": "2025-12-04T13:52:00.834960+00:00",
        "meta_object_name": "COSMOS 2251 DEB",
        "meta_object_id": "1993-036GD",
        "meta_epoch": "2025-12-04T02:35:38.832576",
        "meta_mean_motion": 14.41206685,
        "meta_eccentricity": 0.00233267,
        "meta_inclination": 74.0426,
        "meta_ra_of_asc_node": 206.3822,
        "meta_arg_of_pericenter": 342.3119,
        "meta_mean_anomaly": 171.713,
        "meta_ephemeris_type": 0,
        "meta_classification_type": "U",
        "meta_norad_cat_id": 33994,
        "meta_element_set_no": 999,
        "meta_rev_at_epoch": 88295,
        "meta_bstar": 0.00017153649,
        "meta_mean_motion_dot": 5.29e-06,
        "meta_mean_motion_ddot": 0,
        "tle_line1": "1 33994U 93036GD  25338.10808834  .00000529  00000+0  17154-3 0  9998",
        "tle_line2": "2 33994  74.0426 206.3822 0023326 342.3119 171.7130 14.41206685882954"
      },
      "geometry": {
        "type": "Point",
        "coordinates": [
          -117.05455853334423,
          64.7916823987391
        ]
      }
    },
    {
      "type": "Feature",
      "properties": {
        "norad_id": 33995,
        "name": "COSMOS 2251 DEB",
        "group": "cosmos-2251-debris",
        "lat": -23.10787127019925,
        "lon": 127.27789927762412,
        "alt_km": 824.5535877795619,
        "timestamp": "2025-12-04T13:52:00.834971+00:00",
        "meta_object_name": "COSMOS 2251 DEB",
        "meta_object_id": "1993-036GE",
        "meta_epoch": "2025-12-03T04:30:35.521632",
        "meta_mean_motion": 14.34683036,
        "meta_eccentricity": 0.00609,
        "meta_inclination": 74.0597,
        "meta_ra_of_asc_node": 136.8242,
        "meta_arg_of_pericenter": 153.8096,
        "meta_mean_anomaly": 206.6159,
        "meta_ephemeris_type": 0,
        "meta_classification_type": "U",
        "meta_norad_cat_id": 33995,
        "meta_element_set_no": 999,
        "meta_rev_at_epoch": 87382,
        "meta_bstar": 0.0014459,
        "meta_mean_motion_dot": 4.155e-05,
        "meta_mean_motion_ddot": 0,
        "tle_line1": "1 33995U 93036GE  25337.18791113  .00004155  00000+0  14459-2 0  9990",
        "tle_line2": "2 33995  74.0597 136.8242 0060900 153.8096 206.6159 14.34683036873821"
      },
      "geometry": {
        "type": "Point",
        "coordinates": [
          127.27789927762412,
          -23.10787127019925
        ]
      }
    },
    {
      "type": "Feature",
      "properties": {
        "norad_id": 33999,
        "name": "COSMOS 2251 DEB",
        "group": "cosmos-2251-debris",
        "lat": 28.173687354146345,
        "lon": 58.16338611000538,
        "alt_km": 586.947229816542,
        "timestamp": "2025-12-04T13:52:00.834981+00:00",
        "meta_object_name": "COSMOS 2251 DEB",
        "meta_object_id": "1993-036GJ",
        "meta_epoch": "2025-12-04T03:28:42.818592",
        "meta_mean_motion": 14.83047577,
        "meta_eccentricity": 0.00446928,
        "meta_inclination": 73.9204,
        "meta_ra_of_asc_node": 247.9131,
        "meta_arg_of_pericenter": 145.9591,
        "meta_mean_anomaly": 214.4468,
        "meta_ephemeris_type": 0,
        "meta_classification_type": "U",
        "meta_norad_cat_id": 33999,
        "meta_element_set_no": 999,
        "meta_rev_at_epoch": 89123,
        "meta_bstar": 0.003158532,
        "meta_mean_motion_dot": 0.00026221,
        "meta_mean_motion_ddot": 0,
        "tle_line1": "1 33999U 93036GJ  25338.14494003  .00026221  00000+0  31585-2 0  9996",
        "tle_line2": "2 33999  73.9204 247.9131 0044692 145.9591 214.4468 14.83047577891234"
      },
      "geometry": {
        "type": "Point",
        "coordinates": [
          58.16338611000538,
          28.173687354146345
        ]
      }
    },
    {
      "type": "Feature",
      "properties": {
        "norad_id": 34001,
        "name": "COSMOS 2251 DEB",
        "group": "cosmos-2251-debris",
        "lat": 58.0039486482665,
        "lon": -36.13998893960795,
        "alt_km": 751.8694286791906,
        "timestamp": "2025-12-04T13:52:00.834991+00:00",
        "meta_object_name": "COSMOS 2251 DEB",
        "meta_object_id": "1993-036GL",
        "meta_epoch": "2025-12-04T07:36:49.053888",
        "meta_mean_motion": 14.37081559,
        "meta_eccentricity": 0.00195631,
        "meta_inclination": 74.0383,
        "meta_ra_of_asc_node": 297.0745,
        "meta_arg_of_pericenter": 20.1126,
        "meta_mean_anomaly": 134.2602,
        "meta_ephemeris_type": 0,
        "meta_classification_type": "U",
        "meta_norad_cat_id": 34001,
        "meta_element_set_no": 999,
        "meta_rev_at_epoch": 88025,
        "meta_bstar": 0.00041186032,
        "meta_mean_motion_dot": 1.199e-05,
        "meta_mean_motion_ddot": 0,
        "tle_line1": "1 34001U 93036GL  25338.31723442  .00001199  00000+0  41186-3 0  9998",
        "tle_line2": "2 34001  74.0383 297.0745 0019563  20.1126 134.2602 14.37081559880259"
      },
      "geometry": {
        "type": "Point",
        "coordinates": [
          -36.13998893960795,
          58.0039486482665
        ]
      }
    }
  ]
}